COSMOS 2425 (716)       
1 29670U 06062A   18195.38763334 -.00000007  00000-0  10000-3 0  9991
2 29670  65.2651 291.6177 0019998 346.0230  73.4802  2.13105080 89896
COSMOS 2426 (717)       
1 29671U 06062B   18195.36021256 -.00000007  00000-0  10000-3 0  9990
2 29671  65.2840 291.7174 0019045 165.0479  88.9636  2.13102991 89896
COSMOS 2433 (720)       
1 32275U 07052A   18195.57657910 -.00000029  00000-0  10000-3 0  9993
2 32275  65.6993  52.4427 0001107 293.6221 102.0608  2.13104603 83410
COSMOS 2432 (719)       
1 32276U 07052B   18194.71554226 -.00000023  00000-0  10000-3 0  9999
2 32276  65.7120  52.5493 0011246 343.1829  63.8582  2.13104002 83393
COSMOS 2434 (721)       
1 32393U 07065A   18194.85381891 -.00000005  00000-0  00000+0 0  9999
2 32393  64.8804 290.5983 0004795 124.6971 324.4988  2.13103059 82106
COSMOS 2436 (723)       
1 32395U 07065C   18194.73428939 -.00000005  00000-0  10000-3 0  9998
2 32395  64.8905 290.6520 0013825   1.5873  46.5424  2.13104463 82035
COSMOS 2456 (730)       
1 36111U 09070A   18195.06755808  .00000046  00000-0  00000+0 0  9990
2 36111  64.1887 170.1823 0006616 301.1100 124.3849  2.13103048 66774
COSMOS 2457 (733)       
1 36112U 09070B   18194.61110065  .00000047  00000-0  00000+0 0  9992
2 36112  64.1704 170.1085 0005710 195.2193   6.8402  2.13101640 66765
COSMOS 2458 (734)       
1 36113U 09070C   18194.21373087  .00000049  00000-0  10000-3 0  9991
2 36113  64.1760 170.1332 0003035 316.1613 348.3399  2.13096773 66750
COSMOS 2459 (731)       
1 36400U 10007A   18194.73693869 -.00000024  00000-0  10000-3 0  9996
2 36400  65.6098  51.5297 0027404 355.2050 335.0598  2.13102259 65116
COSMOS 2461 (735)       
1 36401U 10007B   18194.75860178 -.00000024  00000-0  10000-3 0  9998
2 36401  65.5998  51.5022 0008661  64.6502 192.8308  2.13102320 65115
COSMOS 2460 (732)       
1 36402U 10007C   18194.76966551 -.00000024  00000-0  10000-3 0  9992
2 36402  65.5920  51.4697 0002005  57.4475 249.0794  2.13101638 65118
COSMOS 2464 (736)       
1 37139U 10041C   18195.00822185 -.00000005  00000-0  00000+0 0  9994
2 37139  64.4832 290.3844 0022596  13.6359  61.8168  2.13102790 61195
COSMOS 2471 (701K)      
1 37372U 11009A   18194.71397689 -.00000023  00000-0  00000+0 0  9991
2 37372  65.5897  51.4170 0006928 230.4824 177.8520  2.13107638 57395
COSMOS 2474 (742)       
1 37829U 11055A   18194.72228472  .00000048  00000-0  00000+0 0  9999
2 37829  64.5119 170.9233 0011027 254.0074 124.6302  2.13101965 52761
COSMOS 2476 (744)       
1 37867U 11064A   18195.49757076  .00000047  00000-0  00000+0 0  9992
2 37867  64.4920 170.9583 0020621 245.6820  53.7802  2.13102006 52129
COSMOS 2477 (745)       
1 37868U 11064B   18194.61969215  .00000048  00000-0  00000+0 0  9997
2 37868  64.5003 171.0367 0018394 247.2491 277.6124  2.13101866 52061
COSMOS 2475 (743)       
1 37869U 11064C   18194.60848677  .00000048  00000-0  00000+0 0  9995
2 37869  64.5078 171.0317 0023076 268.5329 204.4705  2.13102187 52079
COSMOS 2485 (747)       
1 39155U 13019A   18194.75291205  .00000048  00000-0  00000-0 0  9993
2 39155  64.6612 171.0988 0020933 241.0257 252.0249  2.13102055 40582
COSMOS 2492 (754)       
1 39620U 14012A   18195.09981903 -.00000027  00000-0  10000-3 0  9995
2 39620  65.4816  51.3410 0014251 336.7823  97.2151  2.13103521 33549
COSMOS 2500 (755)       
1 40001U 14032A   18194.89024883 -.00000025  00000-0  00000-0 0  9998
2 40001  65.4226  51.3139 0004577 193.1712 302.2667  2.13102870 31757
COSMOS 2501 (702K)      
1 40315U 14075A   18195.10128963 -.00000008  00000-0  00000+0 0  9992
2 40315  64.2082 291.5850 0016410 205.3913 253.2847  2.13098769 28165
COSMOS 2514 (751)       
1 41330U 16008A   18195.04754921 -.00000027  00000-0  00000+0 0  9991
2 41330  65.2243  51.3562 0007777 211.1316 225.9180  2.13103326 18928
COSMOS 2516 (753)       
1 41554U 16032A   18194.74941322 -.00000007  00000-0  00000-0 0  9994
2 41554  64.4296 291.4687 0013024 214.1201 245.2668  2.13101737 16522
COSMOS 2522 (752)       
1 42939U 17055A   18194.44443285 -.00000006  00000-0  00000-0 0  9999
2 42939  64.6593 291.4543 0007534 236.6455 215.1988  2.13101916  6273
